FENGYUN 3D              
1 43010U 17072A   26167.16071255 -.00000037  00000+0  41849-5 0  9995
2 43010  99.0120 141.5647 0002603  64.5233 295.6212 14.19739009444847
NOAA 20 (JPSS-1)        
1 43013U 17073A   26167.15549770  .00000060  00000+0  49460-4 0  9991
2 43013  98.7772 106.6273 0000289  88.2488 271.8721 14.19511585444320
GOES 17                 
1 43226U 18022A   26167.20322589 -.00000183  00000+0  00000+0 0  9994
2 43226   0.9351  85.7296 0000415  33.4704 128.9309  1.00269816 30418
SENTINEL-3B             
1 43437U 18039A   26167.06762832  .00000075  00000+0  49012-4 0  9999
2 43437  98.6250 234.6159 0000724  87.1563 272.9700 14.26734391423967
FENGYUN 2H              
1 43491U 18050A   26167.05897030 -.00000132  00000+0  00000+0 0  9994
2 43491   3.0276  79.0815 0002000 138.2067 147.6875  1.00269672 29428
METOP-C                 
1 43689U 18087A   26167.15301088  .00000085  00000+0  58862-4 0  9997
2 43689  98.6645 226.7755 0001726 130.9008 229.2319 14.21511873394682
GEO-KOMPSAT-2A          
1 43823U 18100A   26166.95226067 -.00000343  00000+0  00000+0 0  9997
2 43823   0.0520 119.3430 0001780 326.9948 288.9728  1.00271059 27612
METEOR-M2 2             
1 44387U 19038A   26167.19098007 -.00000012  00000+0  14515-4 0  9996
2 44387  98.9137 154.4616 0002118  49.7270 310.4093 14.24365565361150
ARKTIKA-M 1             
1 47719U 21016A   26165.99849030 -.00000233  00000+0  00000+0 0  9997
2 47719  63.2382  57.9810 7287766 269.9259  14.6142  2.00623319 38745
FENGYUN 3E              
1 49008U 21062A   26167.14469307  .00000013  00000+0  26839-4 0  9993
2 49008  98.7485 170.5642 0002840  87.4763 272.6738 14.19903809256437
GOES 18                 
1 51850U 22021A   26167.08739707  .00000097  00000+0  00000+0 0  9993
2 51850   0.0124  96.1374 0000283  67.0214 355.6609  1.00270213  6580
NOAA 21 (JPSS-2)        
1 54234U 22150A   26167.11795284  .00000045  00000+0  42048-4 0  9997
2 54234  98.7060 105.9252 0001597 156.4657 203.6592 14.19565326186396
METEOSAT-12 (MTG-I1)    
1 54743U 22170C   26167.11442372 -.00000009  00000+0  00000+0 0  9999
2 54743   0.7370  22.7991 0003143  71.6629 210.7035  1.00272351 12961
TIANMU-1 03             
1 55973U 23039A   26167.20943921  .00012874  00000+0  25444-3 0  9991
2 55973  97.5226 341.1402 0004231 101.5396 258.6329 15.47260625180688
TIANMU-1 04             
1 55974U 23039B   26167.19929293  .00013452  00000+0  26031-3 0  9992
2 55974  97.5164 340.2832 0004848  98.3549 261.8251 15.47858511180692
TIANMU-1 05             
1 55975U 23039C   26167.19015618  .00012387  00000+0  24552-3 0  9992
2 55975  97.5211 340.7350 0003936 117.3008 242.8643 15.47187875180664
TIANMU-1 06             
1 55976U 23039D   26167.20261020  .00012866  00000+0  24993-3 0  9996
2 55976  97.5216 341.3830 0004341 113.1335 247.0372 15.47762575180693
FENGYUN 3G              
1 56232U 23055A   26167.20545853  .00019817  00000+0  32247-3 0  9993
2 56232  49.9934 351.0803 0006967 292.1767  67.8461 15.52589892179856
METEOR-M2 3             
1 57166U 23091A   26167.18506164 -.00000006  00000+0  16008-4 0  9998
2 57166  98.6090 222.1839 0004302 158.0796 202.0568 14.24046703154375
TIANMU-1 07             
1 57399U 23101A   26167.18439153  .00005486  00000+0  19264-3 0  9993
2 57399  97.2590 217.8758 0004036 123.5756 236.5871 15.29798745161497
TIANMU-1 08             
1 57400U 23101B   26167.15103656  .00005447  00000+0  19122-3 0  9999
2 57400  97.2579 217.6140 0005552 117.5807 242.5998 15.29802759161481
TIANMU-1 09             
1 57401U 23101C   26167.19988065  .00005467  00000+0  19175-3 0  9999
2 57401  97.2537 217.0779 0004511 129.1449 231.0193 15.29834133161495
TIANMU-1 10             
1 57402U 23101D   26167.16750368  .00005416  00000+0  19012-3 0  9994
2 57402  97.2618 218.0957 0006121 128.6996 231.4793 15.29805034161482
FENGYUN 3F              
1 57490U 23111A   26167.19910029  .00000034  00000+0  36636-4 0  9990
2 57490  98.6835 237.2262 0001586  94.2929 265.8428 14.19938936148725
ARKTIKA-M 2             
1 58584U 23198A   26160.78386103  .00000212  00000+0  00000+0 0  9997
2 58584  63.2205 155.1874 6900401 267.4353  18.7899  2.00606537 18179
TIANMU-1 11             
1 58645U 23205A   26167.20160878  .00005087  00000+0  19460-3 0  9996
2 58645  97.3441 188.7739 0009071  20.5171 339.6430 15.26988105137378
TIANMU-1 12             
1 58646U 23205B   26167.17195027  .00004822  00000+0  18490-3 0  9995
2 58646  97.3429 188.5006 0006852   7.2382 352.8955 15.26951644137355
TIANMU-1 13             
1 58647U 23205C   26167.13849597  .00005088  00000+0  19582-3 0  9998
2 58647  97.3459 188.7401 0006017 345.8022  14.3047 15.26805223137347
TIANMU-1 14             
1 58648U 23205D   26167.18926941  .00004859  00000+0  18685-3 0  9991
2 58648  97.3392 187.9727 0006996 349.4406  10.6685 15.26850007137356
TIANMU-1 19             
1 58660U 23208A   26167.17627848  .00006767  00000+0  22458-3 0  9994
2 58660  97.4509 283.4704 0003903 332.7564  27.3472 15.31561388137179
TIANMU-1 20             
1 58661U 23208B   26167.21485906  .00006676  00000+0  21350-3 0  9996
2 58661  97.4452 284.1436 0006111 338.0660  22.0320 15.32752498137277
