OBJECT_NAME,OBJECT_ID,EPOCH,MEAN_MOTION,ECCENTRICITY,INCLINATION,RA_OF_ASC_NODE,ARG_OF_PERICENTER,MEAN_ANOMALY,EPHEMERIS_TYPE,CLASSIFICATION_TYPE,NORAD_CAT_ID,ELEMENT_SET_NO,REV_AT_EPOCH,BSTAR,MEAN_MOTION_DOT,MEAN_MOTION_DDOT
FENGYUN 3D,2017-072A,2026-06-16T03:51:25.564320,14.19739009,.0002603,99.0120,141.5647,64.5233,295.6212,0,U,43010,999,44484,.41849E-5,-.37E-6,0
NOAA 20 (JPSS-1),2017-073A,2026-06-16T03:43:55.001280,14.19511585,.0000289,98.7772,106.6273,88.2488,271.8721,0,U,43013,999,44432,.4946E-4,.6E-6,0
GOES 17,2018-022A,2026-06-16T04:52:38.716896,1.00269816,.0000415,0.9351,85.7296,33.4704,128.9309,0,U,43226,999,3041,0,-.183E-5,0
SENTINEL-3B,2018-039A,2026-06-16T01:37:23.086848,14.26734391,.0000724,98.6250,234.6159,87.1563,272.9700,0,U,43437,999,42396,.49012E-4,.75E-6,0
FENGYUN 2H,2018-050A,2026-06-16T01:24:55.033920,1.00269672,.0002,3.0276,79.0815,138.2067,147.6875,0,U,43491,999,2942,0,-.132E-5,0
METOP-C,2018-087A,2026-06-16T03:40:20.140032,14.21511873,.0001726,98.6645,226.7755,130.9008,229.2319,0,U,43689,999,39468,.58862E-4,.85E-6,0
GEO-KOMPSAT-2A,2018-100A,2026-06-15T22:51:15.321888,1.00271059,.000178,0.0520,119.3430,326.9948,288.9728,0,U,43823,999,2761,0,-.343E-5,0
METEOR-M2 2,2019-038A,2026-06-16T04:35:00.678048,14.24365565,.0002118,98.9137,154.4616,49.7270,310.4093,0,U,44387,999,36115,.14515E-4,-.12E-6,0
ARKTIKA-M 1,2021-016A,2026-06-14T23:57:49.561920,2.00623319,.72877661,63.2382,57.9810,269.9259,14.6142,0,U,47719,999,3874,0,-.233E-5,0
FENGYUN 3E,2021-062A,2026-06-16T03:28:21.481248,14.19903809,.000284,98.7485,170.5642,87.4763,272.6738,0,U,49008,999,25643,.26839E-4,.13E-6,0
GOES 18,2022-021A,2026-06-16T02:05:51.106848,1.00270213,.0000283,0.0124,96.1374,67.0214,355.6609,0,U,51850,999,658,0,.97E-6,0
NOAA 21 (JPSS-2),2022-150A,2026-06-16T02:49:51.125376,14.19565326,.0001597,98.7060,105.9252,156.4657,203.6592,0,U,54234,999,18639,.42048E-4,.45E-6,0
METEOSAT-12 (MTG-I1),2022-170C,2026-06-16T02:44:46.209408,1.00272351,.0003143,0.7370,22.7991,71.6629,210.7035,0,U,54743,999,1296,0,-.9E-7,0
TIANMU-1 03,2023-039A,2026-06-16T05:01:35.547744,15.47260625,.0004231,97.5226,341.1402,101.5396,258.6329,0,U,55973,999,18068,.25444E-3,.12874E-3,0
TIANMU-1 04,2023-039B,2026-06-16T04:46:58.909152,15.47858511,.0004848,97.5164,340.2832,98.3549,261.8251,0,U,55974,999,18069,.26031E-3,.13452E-3,0
TIANMU-1 05,2023-039C,2026-06-16T04:33:49.493952,15.47187875,.0003936,97.5211,340.7350,117.3008,242.8643,0,U,55975,999,18066,.24552E-3,.12387E-3,0
TIANMU-1 06,2023-039D,2026-06-16T04:51:45.521280,15.47762575,.0004341,97.5216,341.3830,113.1335,247.0372,0,U,55976,999,18069,.24993E-3,.12866E-3,0
FENGYUN 3G,2023-055A,2026-06-16T04:55:51.616992,15.52589892,.0006967,49.9934,351.0803,292.1767,67.8461,0,U,56232,999,17985,.32247E-3,.19817E-3,0
METEOR-M2 3,2023-091A,2026-06-16T04:26:29.325696,14.24046703,.0004302,98.6090,222.1839,158.0796,202.0568,0,U,57166,999,15437,.16008E-4,-.6E-7,0
TIANMU-1 07,2023-101A,2026-06-16T04:25:31.428192,15.29798745,.0004036,97.2590,217.8758,123.5756,236.5871,0,U,57399,999,16149,.19264E-3,.5486E-4,0
TIANMU-1 08,2023-101B,2026-06-16T03:37:29.558784,15.29802759,.0005552,97.2579,217.6140,117.5807,242.5998,0,U,57400,999,16148,.19122E-3,.5447E-4,0
TIANMU-1 09,2023-101C,2026-06-16T04:47:49.688160,15.29834133,.0004511,97.2537,217.0779,129.1449,231.0193,0,U,57401,999,16149,.19175E-3,.5467E-4,0
TIANMU-1 10,2023-101D,2026-06-16T04:01:12.317952,15.29805034,.0006121,97.2618,218.0957,128.6996,231.4793,0,U,57402,999,16148,.19012E-3,.5416E-4,0
FENGYUN 3F,2023-111A,2026-06-16T04:46:42.265056,14.19938936,.0001586,98.6835,237.2262,94.2929,265.8428,0,U,57490,999,14872,.36636E-4,.34E-6,0
ARKTIKA-M 2,2023-198A,2026-06-09T18:48:45.592992,2.00606537,.69004015,63.2205,155.1874,267.4353,18.7899,0,U,58584,999,1817,0,.212E-5,0
TIANMU-1 11,2023-205A,2026-06-16T04:50:18.998592,15.26988105,.0009071,97.3441,188.7739,20.5171,339.6430,0,U,58645,999,13737,.1946E-3,.5087E-4,0
TIANMU-1 12,2023-205B,2026-06-16T04:07:36.503328,15.26951644,.0006852,97.3429,188.5006,7.2382,352.8955,0,U,58646,999,13735,.1849E-3,.4822E-4,0
TIANMU-1 13,2023-205C,2026-06-16T03:19:26.051808,15.26805223,.0006017,97.3459,188.7401,345.8022,14.3047,0,U,58647,999,13734,.19582E-3,.5088E-4,0
TIANMU-1 14,2023-205D,2026-06-16T04:32:32.877024,15.26850007,.0006996,97.3392,187.9727,349.4406,10.6685,0,U,58648,999,13735,.18685E-3,.4859E-4,0
TIANMU-1 19,2023-208A,2026-06-16T04:13:50.460672,15.31561388,.0003903,97.4509,283.4704,332.7564,27.3472,0,U,58660,999,13717,.22458E-3,.6767E-4,0
TIANMU-1 20,2023-208B,2026-06-16T05:09:23.822784,15.32752498,.0006111,97.4452,284.1436,338.0660,22.0320,0,U,58661,999,13727,.2135E-3,.6676E-4,0
